{"type": "FeatureCollection", "features": [{"type": "Feature", "geometry": {"type": "Point", "coordinates": [100.54230499267578, 13.855816841125488]}, "properties": {"name": "Bonchon (The Mall Lifestore Ngamwongwan)", "all_strings": ["Bonchon (The Mall Lifestore Ngamwongwan)", "งามวงศ์วานทางขนาน", "30/39", "อ.เมืองนนทบุรี", "ต.บางเขน", "จ.นนทบุรี", "อ.เมืองนนทบุรี", "11000", "TH", "Thailand"], "key": "PP-dfb2550600000000"}}, {"type": "Feature", "geometry": {"type": "Point", "coordinates": [98.44207763671875, 19.379535675048828]}, "properties": {"name": "Bulunburi Pai Resort", "all_strings": ["Bulunburi Pai Resort", "TH", "Thailand"], "key": "PP-03504a0000000000"}}, {"type": "Feature", "geometry": {"type": "Point", "coordinates": [98.97765350341797, 18.794937133789062]}, "properties": {"name": "Chiang Mai Ram Hospital", "all_strings": ["Chiang Mai Ram Hospital", "TH", "Thailand"], "key": "PP-53d2d90000000000"}}, {"type": "Feature", "geometry": {"type": "Point", "coordinates": [98.9662857055664, 18.797086715698242]}, "properties": {"name": "Rich Mellow", "all_strings": ["Rich Mellow", "Nimman Hemin Road", "24/12", "Mueang Chiang Mai District", "Suthep", "Chiang Mai", "Mueang Chiang Mai District", "50200", "TH", "Thailand"], "key": "PP-8c78de0500000000"}}, {"type": "Feature", "geometry": {"type": "Point", "coordinates": [98.90095520019531, 18.736690521240234]}, "properties": {"name": "Chiang Mai Sauna Ice Bath Eudemonia", "all_strings": ["Chiang Mai Sauna Ice Bath Eudemonia", "National Highway 1269", "159–171", "Hang Dong District", "Nong Khwai", "Chiang Mai", "Hang Dong District", "50230", "TH", "Thailand"], "key": "PP-11cddd0500000000"}}, {"type": "Feature", "geometry": {"type": "Point", "coordinates": [98.9581298828125, 18.809349060058594]}, "properties": {"name": "ต้นสนคาเฟ่", "all_strings": ["ต้นสนคาเฟ่", "ถนนห้วยแก้ว", "105", "อ.เมืองเชียงใหม่", "ต.ช้างเผือก", "จ.เชียงใหม่", "อ.เมืองเชียงใหม่", "50300", "TH", "Thailand"], "key": "PP-950d340400000000"}}, {"type": "Feature", "geometry": {"type": "Point", "coordinates": [98.95843505859375, 18.805965423583984]}, "properties": {"name": "Snooze Massage CNX สนูซนวดเพื่อสุขภาพเชียงใหม่", "all_strings": ["Snooze Massage CNX สนูซนวดเพื่อสุขภาพเชียงใหม่", "Huai Kaeo Road", "231", "Mueang Chiang Mai District", "Suthep", "Chiang Mai", "Mueang Chiang Mai District", "50200", "TH", "Thailand"], "key": "PP-a47f4c0400000000"}}, {"type": "Feature", "geometry": {"type": "Point", "coordinates": [98.98260498046875, 18.801973342895508]}, "properties": {"name": "ข้าวขาหมู แม่เพ็ญ by. Jirapar", "all_strings": ["ข้าวขาหมู แม่เพ็ญ by. Jirapar", "ซอยหัสดิเสวี 2", "758/1", "อ.เมืองเชียงใหม่", "ต.ช้างเผือก", "จ.เชียงใหม่", "อ.เมืองเชียงใหม่", "50300", "TH", "Thailand"], "key": "PP-94be2f0200000000"}}, {"type": "Feature", "geometry": {"type": "Point", "coordinates": [100.5240478515625, 13.722622871398926]}, "properties": {"name": "Go Inn Silom BTS St Louis / Surawak", "all_strings": ["Go Inn Silom BTS St Louis / Surawak", "ถนนปั้น", "กรุงเทพมหานคร", "10500", "TH", "Thailand"], "key": "PP-8581780000000000"}}, {"type": "Feature", "geometry": {"type": "Point", "coordinates": [98.96603393554688, 18.80909538269043]}, "properties": {"name": "The Coco Club", "all_strings": ["The Coco Club", "Soi Chet Yot Yu Yen 2", "29/88", "Mueang Chiang Mai District", "Chang Phueak", "Chiang Mai", "Mueang Chiang Mai District", "50300", "TH", "Thailand"], "key": "PP-f8d5510400000000"}}, {"type": "Feature", "geometry": {"type": "Point", "coordinates": [99.01814270019531, 18.809167861938477]}, "properties": {"name": "Premier Lounge - Central Festival Chiang Mai", "all_strings": ["Premier Lounge - Central Festival Chiang Mai", "Mueang Chiang Mai District", "Fa Ham", "Chiang Mai", "Mueang Chiang Mai District", "50000", "TH", "Thailand"], "key": "PP-812e230400000000"}}, {"type": "Feature", "geometry": {"type": "Point", "coordinates": [99.35003662109375, 18.86507225036621]}, "properties": {"name": "Lung Pud Pa Peng Coffee House", "all_strings": ["Lung Pud Pa Peng Coffee House", "Moo 3", "77/1", "Mae On District", "Huai Kaeo", "Chiang Mai", "Mae On District", "50130", "TH", "Thailand"], "key": "PP-bcc37b0200000000"}}, {"type": "Feature", "geometry": {"type": "Point", "coordinates": [98.95161437988281, 18.79950714111328]}, "properties": {"name": "I LOVE COFFEE ศูนย์อาหาร CMU", "all_strings": ["I LOVE COFFEE ศูนย์อาหาร CMU", "ถนนพิษณุโลก 6", "อ.เมืองเชียงใหม่", "ต.สุเทพ", "จ.เชียงใหม่", "อ.เมืองเชียงใหม่", "50200", "TH", "Thailand"], "key": "PP-3f76150200000000"}}, {"type": "Feature", "geometry": {"type": "Point", "coordinates": [98.93415832519531, 18.79931640625]}, "properties": {"name": "หอพระแก้ว วัดผาลาด", "all_strings": ["หอพระแก้ว วัดผาลาด", "TH", "Thailand"], "key": "PP-f6c6420000000000"}}, {"type": "Feature", "geometry": {"type": "Point", "coordinates": [98.98432159423828, 18.802045822143555]}, "properties": {"name": "Firefly Factory", "all_strings": ["Firefly Factory", "ถนน ช้างเผือก", "177 ", "อำเภอเมืองเชียงใหม่", "ตำบลช้างเผือก", "จ.เชียงใหม่", "อำเภอเมืองเชียงใหม่", "50300", "TH", "Thailand"], "key": "PP-ced7c00200000000"}}, {"type": "Feature", "geometry": {"type": "Point", "coordinates": [98.63292985701992, 18.63265023041606]}, "properties": {"name": "Joy elephant", "all_strings": ["Joy elephant"], "key": "CP-b8be052e944e0100-1770618515231"}}, {"type": "Feature", "geometry": {"type": "Point", "coordinates": [98.99971008300781, 18.779054641723633]}, "properties": {"name": "Choei", "all_strings": ["Choei", "Chang Khlan Road", "187/24", "Mueang Chiang Mai District", "Chang Khlan", "Chiang Mai", "Mueang Chiang Mai District", "50100", "TH", "Thailand"], "key": "PP-c2a38d0200000000"}}, {"type": "Feature", "geometry": {"type": "Point", "coordinates": [98.96727752685547, 18.802383422851562]}, "properties": {"name": "MAYA", "all_strings": ["MAYA", "Huay Kaew Rd.", "55 Moo 5", "Mueang Chiang Mai", "Chang Phueak", "Chiang Mai", "Mueang Chiang Mai", "50300", "TH", "Thailand"], "key": "PP-d299280100000000"}}, {"type": "Feature", "geometry": {"type": "Point", "coordinates": [99.00804901123047, 18.786941528320312]}, "properties": {"name": "Wikunpanich Salapo", "all_strings": ["Wikunpanich Salapo", "Charoen Mueang Road", "138", "Mueang Chiang Mai District", "Wat Ket", "Chiang Mai", "Mueang Chiang Mai District", "50000", "TH", "Thailand"], "key": "PP-83b5c60200000000"}}, {"type": "Feature", "geometry": {"type": "Point", "coordinates": [98.96145629882812, 18.80604362487793]}, "properties": {"name": "bays coffee co.", "all_strings": ["bays coffee co.", "Soi Suk Chai 2", "171", "Mueang Chiang Mai District", "Chang Phueak", "Chiang Mai", "Mueang Chiang Mai District", "50300", "TH", "Thailand"], "key": "PP-ce1be50200000000"}}, {"type": "Feature", "geometry": {"type": "Point", "coordinates": [98.97864532470703, 18.77178192138672]}, "properties": {"name": "Child’s Dream Foundation", "all_strings": ["Child’s Dream Foundation", "Thipphanet Road", "238", "Mueang Chiang Mai District", "Hai Ya", "Chiang Mai", "Mueang Chiang Mai District", "50100", "TH", "Thailand"], "key": "PP-90a04e0600000000"}}, {"type": "Feature", "geometry": {"type": "Point", "coordinates": [98.96812438964844, 18.768997192382812]}, "properties": {"name": "Chiang Mai International Airport", "all_strings": ["Chiang Mai International Airport", "ถนนสนามบิน", "60", "จังหวัดเชียงใหม่", "สุเทพ", "50100", "TH", "Thailand"], "key": "PP-e3dac80000000000"}}, {"type": "Feature", "geometry": {"type": "Point", "coordinates": [99.01773834228516, 18.807296752929688]}, "properties": {"name": "AKA Yakiniku Central Chiangmai", "all_strings": ["AKA Yakiniku Central Chiangmai", "อ.เมืองเชียงใหม่", "ต.ฟ้าฮ่าม", "จ.เชียงใหม่", "อ.เมืองเชียงใหม่", "50000", "TH", "Thailand"], "key": "PP-cccbe50100000000"}}, {"type": "Feature", "geometry": {"type": "Point", "coordinates": [98.96959686279297, 18.80771827697754]}, "properties": {"name": "บ้านชา ลาเปา", "all_strings": ["บ้านชา ลาเปา", "ซอยเจ็ดยอด-ช่างเคี่ยน 3", "45/2", "อ.เมืองเชียงใหม่", "ต.ช้างเผือก", "จ.เชียงใหม่", "อ.เมืองเชียงใหม่", "50300", "TH", "Thailand"], "key": "PP-2fc9b00400000000"}}, {"type": "Feature", "geometry": {"type": "Point", "coordinates": [98.9668960571289, 18.802202224731445]}, "properties": {"name": "Myst", "all_strings": ["Myst", "ถนนห้วยแก้ว", "จังหวัดเชียงใหม่", "เทศบาลนครเชียงใหม่", "50030", "TH", "Thailand"], "key": "PP-a3337e0000000000"}}, {"type": "Feature", "geometry": {"type": "Point", "coordinates": [98.97560119628906, 19.448150634765625]}, "properties": {"name": "Marisa Resort & Spa Chiang Dao", "all_strings": ["Marisa Resort & Spa Chiang Dao", "T.Muang Ngai", "304 Moo 4", "Chiang Dao", "50170", "TH", "Thailand"], "key": "PP-5785270000000000"}}, {"type": "Feature", "geometry": {"type": "Point", "coordinates": [98.96755981445312, 18.798765182495117]}, "properties": {"name": "Healthy Junk", "all_strings": ["Healthy Junk", "ซอย นิมมานเหมินท์ 5", "5/5", "อ.เมืองเชียงใหม่", "สุเทพ", "จ.เชียงใหม่", "อ.เมืองเชียงใหม่", "50200", "TH", "Thailand"], "key": "PP-2c56150100000000"}}, {"type": "Feature", "geometry": {"type": "Point", "coordinates": [99.0071792602539, 18.78713035583496]}, "properties": {"name": "Praise Cafe", "all_strings": ["Praise Cafe", "Charoen Mueang Road", "61", "Mueang Chiang Mai District", "Wat Ket", "Chiang Mai", "Mueang Chiang Mai District", "50000", "TH", "Thailand"], "key": "PP-b3c5930300000000"}}, {"type": "Feature", "geometry": {"type": "Point", "coordinates": [99.00334930419922, 18.78337860107422]}, "properties": {"name": "Egyptian Kings Restaurant", "all_strings": ["Egyptian Kings Restaurant", "Charoen Prathet Road", "93/1", "Mueang Chiang Mai District", "Chang Khlan", "Chiang Mai", "Mueang Chiang Mai District", "50100", "TH", "Thailand"], "key": "PP-df8d710200000000"}}, {"type": "Feature", "geometry": {"type": "Point", "coordinates": [98.44473266601562, 19.358882904052734]}, "properties": {"name": "Pai Siam Bar and Bistro", "all_strings": ["Pai Siam Bar and Bistro", "Rangsiyanon Road", "93/10", "Pai District", "Wiang Tai", "Mae Hong Son", "Pai District", "58130", "TH", "Thailand"], "key": "PP-d283c10100000000"}}, {"type": "Feature", "geometry": {"type": "Point", "coordinates": [98.98917388916016, 18.761716842651367]}, "properties": {"name": "Much Room Cafe", "all_strings": ["Much Room Cafe", "Soi Ban Pa Phrao Nok 3", "Mueang Chiang Mai District", "Pa Daet", "Chiang Mai", "Mueang Chiang Mai District", "50100", "TH", "Thailand"], "key": "PP-e809850300000000"}}, {"type": "Feature", "geometry": {"type": "Point", "coordinates": [98.95658111572266, 18.80755615234375]}, "properties": {"name": "Finn Crêpe Chiang Mai", "all_strings": ["Finn Crêpe Chiang Mai", "Muban Rin", "99/10", "Mueang Chiang Mai District", "Chang Phueak", "Chiang Mai", "Mueang Chiang Mai District", "50300", "TH", "Thailand"], "key": "PP-47206e0400000000"}}, {"type": "Feature", "geometry": {"type": "Point", "coordinates": [98.96532440185547, 18.795167922973633]}, "properties": {"name": "Lounge by Warm Up Café", "all_strings": ["Lounge by Warm Up Café", "ซอยนิมมานเหมินท์ 5", "40", "อ.เมืองเชียงใหม่", "ต.สุเทพ", "จ.เชียงใหม่", "อ.เมืองเชียงใหม่", "50200", "TH", "Thailand"], "key": "PP-f968300200000000"}}, {"type": "Feature", "geometry": {"type": "Point", "coordinates": [98.96617889404297, 18.833786010742188]}, "properties": {"name": "Site of 2024 Chiang Mai Flower Festival", "all_strings": ["Site of 2024 Chiang Mai Flower Festival", "TH", "Thailand"], "key": "PP-d84baa0000000000"}}, {"type": "Feature", "geometry": {"type": "Point", "coordinates": [98.98645782470703, 18.788240432739258]}, "properties": {"name": "ขนมปลาทองบุงปัง", "all_strings": ["ขนมปลาทองบุงปัง", "Ratchadamnoen Road", "145/6", "Mueang Chiang Mai District", "Phra Sing", "Chiang Mai", "Mueang Chiang Mai District", "50200", "TH", "Thailand"], "key": "PP-ceffd50200000000"}}, {"type": "Feature", "geometry": {"type": "Point", "coordinates": [98.97129821777344, 18.771251678466797]}, "properties": {"name": "Chiang Mai Immigration Office", "all_strings": ["Chiang Mai Immigration Office", "Sanambin Road", "71 Moo 3", "Mueang Chiang Mai", "Suthep", "Chiang Mai", "Mueang Chiang Mai", "50200", "TH", "Thailand"], "key": "PP-61c3ad0300000000"}}, {"type": "Feature", "geometry": {"type": "Point", "coordinates": [98.93669128417969, 18.764291763305664]}, "properties": {"name": "Rotniyom", "all_strings": ["Rotniyom", "TH", "Thailand"], "key": "PP-fd826f0000000000"}}, {"type": "Feature", "geometry": {"type": "Point", "coordinates": [98.98793029785156, 18.788349151611328]}, "properties": {"name": "ทุเรียนทอดเชียงใหม่ (ถนนคนเดินท่าแพ)", "all_strings": ["ทุเรียนทอดเชียงใหม่ (ถนนคนเดินท่าแพ)", "Phra Pokklao Road", "109", "Mueang Chiang Mai District", "Si Phum", "Chiang Mai", "Mueang Chiang Mai District", "50200", "TH", "Thailand"], "key": "PP-ae4f8a0100000000"}}, {"type": "Feature", "geometry": {"type": "Point", "coordinates": [98.8389663696289, 18.895299911499023]}, "properties": {"name": "แวะเต๊อะ ม่อนผาโค้ง", "all_strings": ["แวะเต๊อะ ม่อนผาโค้ง", "ทางหลวงแผ่นดินหมายเลข 1096", "106", "อ.แม่ริม", "ต.โป่งแยง", "จ.เชียงใหม่", "อ.แม่ริม", "50180", "TH", "Thailand"], "key": "PP-d8a2280400000000"}}, {"type": "Feature", "geometry": {"type": "Point", "coordinates": [100.75421142578125, 13.690913200378418]}, "properties": {"name": "Suvarnabhumi Airport", "all_strings": ["Suvarnabhumi Airport", "999 Moo 1", "Bang Phli", "ตำบลหนองปรือ", "Samut Prakan", "อำเภอบางพลี", "10540", "TH", "Thailand"], "key": "PP-4e1d6f0600000000"}}, {"type": "Feature", "geometry": {"type": "Point", "coordinates": [98.98395538330078, 18.789533615112305]}, "properties": {"name": "The Old City Spa", "all_strings": ["The Old City Spa", "Inthawarorot Road", "69", "Mueang Chiang Mai District", "Si Phum", "Chiang Mai", "Mueang Chiang Mai District", "50200", "TH", "Thailand"], "key": "PP-b270dc0100000000"}}, {"type": "Feature", "geometry": {"type": "Point", "coordinates": [99.35438537597656, 18.866750717163086]}, "properties": {"name": "Wailai", "all_strings": ["Wailai", "Moo 3", "39", "Mae On District", "Huai Kaeo", "Chiang Mai", "Mae On District", "50130", "TH", "Thailand"], "key": "PP-22661d0400000000"}}, {"type": "Feature", "geometry": {"type": "Point", "coordinates": [98.9596176147461, 18.805707931518555]}, "properties": {"name": "ฐิดาพร", "all_strings": ["ฐิดาพร", "Moo 2", "19/4", "Mueang Chiang Mai District", "Suthep", "Chiang Mai", "Mueang Chiang Mai District", "50200", "TH", "Thailand"], "key": "PP-0465d00100000000"}}, {"type": "Feature", "geometry": {"type": "Point", "coordinates": [98.99790954589844, 18.779518127441406]}, "properties": {"name": "Sinners and Saints Cafe and Pool Bar", "all_strings": ["Sinners and Saints Cafe and Pool Bar", "ถนนกำแพงดิน", "149/5", "อ.เมืองเชียงใหม่", "ต.หายยา", "จ.เชียงใหม่", "อ.เมืองเชียงใหม่", "50100", "TH", "Thailand"], "key": "PP-c9672d0600000000"}}, {"type": "Feature", "geometry": {"type": "Point", "coordinates": [98.9600601196289, 18.805688858032227]}, "properties": {"name": "The Mellowship Jazz Club", "all_strings": ["The Mellowship Jazz Club", "TH", "Thailand"], "key": "PP-0186720000000000"}}, {"type": "Feature", "geometry": {"type": "Point", "coordinates": [98.45067596435547, 19.349931716918945]}, "properties": {"name": "Dream Cafe", "all_strings": ["Dream Cafe", "Ro Pho Cho. Mae Hong Son 4024 Road", "11", "Pai District", "Mae Hi", "Mae Hong Son", "Pai District", "58130", "TH", "Thailand"], "key": "PP-71e99d0400000000"}}, {"type": "Feature", "geometry": {"type": "Point", "coordinates": [98.99147033691406, 18.79994773864746]}, "properties": {"name": "กินหมูกระทะ สาขาเชียงใหม่", "all_strings": ["กินหมูกระทะ สาขาเชียงใหม่", "Sanam Kila Road", "1", "Mueang Chiang Mai District", "Si Phum", "Chiang Mai", "Mueang Chiang Mai District", "50200", "TH", "Thailand"], "key": "PP-e48c0f0500000000"}}, {"type": "Feature", "geometry": {"type": "Point", "coordinates": [99.02396392822266, 18.798320770263672]}, "properties": {"name": "Northlab Dance Studio", "all_strings": ["Northlab Dance Studio", "Soi Chiang Mai Business Park 4", "Mueang Chiang Mai", "Nong Pa Khrang", "Chiang Mai", "Mueang Chiang Mai", "50000", "TH", "Thailand", "Northlab Dance Studio", "Northlab Dance Studio", "NDS", "northlab-dance-studio-1Z9-m"], "key": "PP-3503f60000000000"}}, {"type": "Feature", "geometry": {"type": "Point", "coordinates": [98.99976348876953, 18.785079956054688]}, "properties": {"name": "CNX Pole", "all_strings": ["CNX Pole", "Soi Tha Phae 1", "108", "Mueang Chiang Mai District", "Chang Khlan", "Chiang Mai", "Mueang Chiang Mai District", "50100", "TH", "Thailand"], "key": "PP-6486c90100000000"}}, {"type": "Feature", "geometry": {"type": "Point", "coordinates": [98.96765899658203, 18.795066833496094]}, "properties": {"name": "Beast Burger", "all_strings": ["Beast Burger", "ถนนนิมมานเหมินทร์ ซอย 17", "TH", "Thailand"], "key": "PP-520d720000000000"}}, {"type": "Feature", "geometry": {"type": "Point", "coordinates": [98.95381164550781, 18.808917999267578]}, "properties": {"name": "Red Panda Cafè (CNX) | ร้านกาแฟแพนด้าแดง (หน้ามช.)", "all_strings": ["Red Panda Cafè (CNX) | ร้านกาแฟแพนด้าแดง (หน้ามช.)", "Huai Kaeo Road", "100", "Mueang Chiang Mai District", "Chang Phueak", "Chiang Mai", "Mueang Chiang Mai District", "50300", "TH", "Thailand"], "key": "PP-c9ac7f0400000000"}}, {"type": "Feature", "geometry": {"type": "Point", "coordinates": [100.53861999511719, 13.854206085205078]}, "properties": {"name": "หม่าล่ากวนอู", "all_strings": ["หม่าล่ากวนอู", "ชุมชนหมู่บ้านมาสุขนิเวศน์", "18/54", "อ.เมืองนนทบุรี", "ต.บางเขน", "จ.นนทบุรี", "อ.เมืองนนทบุรี", "11000", "TH", "Thailand"], "key": "PP-58f53a0500000000"}}, {"type": "Feature", "geometry": {"type": "Point", "coordinates": [98.9971694946289, 18.793033599853516]}, "properties": {"name": "ปังเจริญ", "all_strings": ["ปังเจริญ", "ถนนราชวงศ์", "137", "อ.เมืองเชียงใหม่", "ต.ช้างม่อย", "จ.เชียงใหม่", "อ.เมืองเชียงใหม่", "50300", "TH", "Thailand"], "key": "PP-ed33130200000000"}}, {"type": "Feature", "geometry": {"type": "Point", "coordinates": [98.4398422241211, 19.36286163330078]}, "properties": {"name": "Jai Pang Cafe", "all_strings": ["Jai Pang Cafe", "Soi Khet Khelang 4", "5/2", "Pai District", "Wiang Tai", "Mae Hong Son", "Pai District", "58130", "TH", "Thailand"], "key": "PP-430ae70100000000"}}, {"type": "Feature", "geometry": {"type": "Point", "coordinates": [98.96590423583984, 18.796579360961914]}, "properties": {"name": "Nong Bee’s Burmese Restaurant and the Best Friend Library", "all_strings": ["Nong Bee’s Burmese Restaurant and the Best Friend Library", "Soi Nimman Hemin 8", "28", "Mueang Chiang Mai District", "Suthep", "Chiang Mai", "Mueang Chiang Mai District", "50200", "TH", "Thailand"], "key": "PP-fa30a20200000000"}}, {"type": "Feature", "geometry": {"type": "Point", "coordinates": [98.88774108886719, 18.671558380126953]}, "properties": {"name": "อาวน์ชา", "all_strings": ["อาวน์ชา", "ทางหลวงชนบท ชม. 3035", "258–264", "อ.หางดง", "ต.น้ำแพร่", "จ.เชียงใหม่", "อ.หางดง", "50230", "TH", "Thailand"], "key": "PP-f1fbd90100000000"}}, {"type": "Feature", "geometry": {"type": "Point", "coordinates": [98.96870422363281, 18.798686981201172]}, "properties": {"name": "Fohhide", "all_strings": ["Fohhide", "Soi 5 Nimmanhaemin Road", "14/2 ", "Mueang Chiang Mai", "Suthep", "Chiang Mai", "Mueang Chiang Mai", "50200", "TH", "Thailand"], "key": "PP-52cf1b0200000000"}}, {"type": "Feature", "geometry": {"type": "Point", "coordinates": [98.95923614501953, 18.803028106689453]}, "properties": {"name": "Cloud Coffee", "all_strings": ["Cloud Coffee", "Moo 2", "2/3", "Mueang Chiang Mai District", "Suthep", "Chiang Mai", "Mueang Chiang Mai District", "50200", "TH", "Thailand"], "key": "PP-d1d23f0300000000"}}, {"type": "Feature", "geometry": {"type": "Point", "coordinates": [98.95687103271484, 18.807090759277344]}, "properties": {"name": "Boat Chaingmai", "all_strings": ["Boat Chaingmai", "อ.เมืองเชียงใหม่", "ต.สุเทพ", "จ.เชียงใหม่", "อ.เมืองเชียงใหม่", "50200", "TH", "Thailand"], "key": "PP-9a18080500000000"}}, {"type": "Feature", "geometry": {"type": "Point", "coordinates": [98.87420654296875, 18.851451873779297]}, "properties": {"name": "Doi Suthep-Pui National Park", "all_strings": ["Doi Suthep-Pui National Park", "ถนนห้วยแก้ว", "จังหวัดเชียงใหม่", "ป่าแดด", "TH", "Thailand"], "key": "PP-5c4a560000000000"}}, {"type": "Feature", "geometry": {"type": "Point", "coordinates": [99.01325225830078, 18.911693572998047]}, "properties": {"name": "Lanna Meditation Sanctuary", "all_strings": ["Lanna Meditation Sanctuary", "San Sai District", "Nong Han", "Chiang Mai", "San Sai District", "50290", "TH", "Thailand"], "key": "PP-ac81950400000000"}}, {"type": "Feature", "geometry": {"type": "Point", "coordinates": [98.9675521850586, 18.797727584838867]}, "properties": {"name": "The ‘90s", "all_strings": ["The ‘90s", "Nimman Hemin Road Soi 9", "5, 1", "Mueang Chiang Mai", "Suthep", "Chiang Mai", "Mueang Chiang Mai", "50200", "TH", "Thailand"], "key": "PP-6f5c200200000000"}}, {"type": "Feature", "geometry": {"type": "Point", "coordinates": [98.85020446777344, 18.88379669189453]}, "properties": {"name": "เขากอดโฮมสเตย์", "all_strings": ["เขากอดโฮมสเตย์", "Mae Rim District", "Pong Yaeng", "Chiang Mai", "Mae Rim District", "50180", "TH", "Thailand"], "key": "PP-0e95ad0500000000"}}, {"type": "Feature", "geometry": {"type": "Point", "coordinates": [99.3554916381836, 18.865812301635742]}, "properties": {"name": "Chomnok Chommai", "all_strings": ["Chomnok Chommai", "Moo 3", "98/2", "Mae On District", "Huai Kaeo", "Chiang Mai", "Mae On District", "50130", "TH", "Thailand"], "key": "PP-ab5fa00200000000"}}, {"type": "Feature", "geometry": {"type": "Point", "coordinates": [100.52564239501953, 13.720802307128906]}, "properties": {"name": "Embassy Of The Union Of Myanmar", "all_strings": ["Embassy Of The Union Of Myanmar", "Sathorn NUA Road", "110", "Bangkok", "Si Lom", "Bangkok", "Bang Rak", "10500", "TH", "Thailand"], "key": "PP-33a08a0200000000"}}, {"type": "Feature", "geometry": {"type": "Point", "coordinates": [98.44827270507812, 19.35795783996582]}, "properties": {"name": "Pai coffee Studio", "all_strings": ["Pai coffee Studio", "Ro Pho Cho. Mae Hong Son 4034 Road", "169", "Pai District", "Mae Hi", "Mae Hong Son", "Pai District", "58130", "TH", "Thailand"], "key": "PP-b186a10400000000"}}, {"type": "Feature", "geometry": {"type": "Point", "coordinates": [98.95772552490234, 18.806665420532227]}, "properties": {"name": "Feel Garden Chiang Mai", "all_strings": ["Feel Garden Chiang Mai", "Moo 1", "233", "Mueang Chiang Mai District", "Suthep", "Chiang Mai", "Mueang Chiang Mai District", "50200", "TH", "Thailand"], "key": "PP-47a5710400000000"}}, {"type": "Feature", "geometry": {"type": "Point", "coordinates": [98.975341796875, 18.7988338470459]}, "properties": {"name": "ร้านตามใจสั่ง", "all_strings": ["ร้านตามใจสั่ง", "Ratchaphruek Road", "10", "Mueang Chiang Mai District", "Chang Phueak", "Chiang Mai", "Mueang Chiang Mai District", "50300", "TH", "Thailand"], "key": "PP-68feee0200000000"}}, {"type": "Feature", "geometry": {"type": "Point", "coordinates": [98.91942596435547, 18.663288116455078]}, "properties": {"name": "ครัวตะหลิวทอง", "all_strings": ["ครัวตะหลิวทอง", "หมู่บ้านบ้าน ปรารถนา", "181/1", "อ.หางดง", "ต.หารแก้ว", "จ.เชียงใหม่", "อ.หางดง", "50230", "TH", "Thailand"], "key": "PP-43f4cf0300000000"}}, {"type": "Feature", "geometry": {"type": "Point", "coordinates": [98.9819107055664, 19.42986488342285]}, "properties": {"name": "ร้านอาหาร Chiangdao Good View restaurant&cafe", "all_strings": ["ร้านอาหาร Chiangdao Good View restaurant&cafe", "Moo 5", "173", "Chiang Dao District", "Ping Khong", "Chiang Mai", "Chiang Dao District", "50170", "TH", "Thailand"], "key": "PP-bf25c50500000000"}}, {"type": "Feature", "geometry": {"type": "Point", "coordinates": [99.03707885742188, 18.806047439575195]}, "properties": {"name": "WEALTH POOL VILLA CHIANG MAI", "all_strings": ["WEALTH POOL VILLA CHIANG MAI", "Muban Ban Phimuk Project 4", "333/234", "San Sai District", "San Phranet", "Chiang Mai", "San Sai District", "50210", "TH", "Thailand"], "key": "PP-410fb10500000000"}}, {"type": "Feature", "geometry": {"type": "Point", "coordinates": [100.52404022216797, 13.720785140991211]}, "properties": {"name": "Flaneur Tea", "all_strings": ["Flaneur Tea", "Pan Road", "137/12-13", "Bang Rak District", "Si Lom", "Bangkok", "Bang Rak District", "10500", "TH", "Thailand"], "key": "PP-cc42230400000000"}}, {"type": "Feature", "geometry": {"type": "Point", "coordinates": [98.9565200805664, 18.808698654174805]}, "properties": {"name": "สุกี้โคคา", "all_strings": ["สุกี้โคคา", "Muban Rin", "99/53", "Mueang Chiang Mai District", "Chang Phueak", "Chiang Mai", "Mueang Chiang Mai District", "50300", "TH", "Thailand"], "key": "PP-fa89ef0100000000"}}, {"type": "Feature", "geometry": {"type": "Point", "coordinates": [98.96311392072235, 18.804071466704034]}, "properties": {"name": "Delhi Street Indian Restaurant", "all_strings": ["Delhi Street Indian Restaurant"], "key": "CP-b8be052e944e0100-1771735180598"}}, {"type": "Feature", "geometry": {"type": "Point", "coordinates": [98.94463348388672, 19.36888885498047]}, "properties": {"name": "TATA Chiang Dao Cafe, Restaurant, and Farm", "all_strings": ["TATA Chiang Dao Cafe, Restaurant, and Farm", "อ.เชียงดาว", "ต.เชียงดาว", "จ.เชียงใหม่", "อ.เชียงดาว", "50170", "TH", "Thailand"], "key": "PP-0f2d5f0400000000"}}, {"type": "Feature", "geometry": {"type": "Point", "coordinates": [98.97592163085938, 18.797245025634766]}, "properties": {"name": "Winstons Pool and Sports Club", "all_strings": ["Winstons Pool and Sports Club", "Moo 5", "12", "Mueang Chiang Mai District", "Chang Phueak", "Chiang Mai", "Mueang Chiang Mai District", "50300", "TH", "Thailand"], "key": "PP-b7c7560200000000"}}, {"type": "Feature", "geometry": {"type": "Point", "coordinates": [98.47499084472656, 19.30826759338379]}, "properties": {"name": "שירותים ציבוריים", "all_strings": ["שירותים ציבוריים", "Pai District", "Mae Hi", "Mae Hong Son", "Pai District", "58130", "TH", "Thailand"], "key": "PP-2888300200000000"}}, {"type": "Feature", "geometry": {"type": "Point", "coordinates": [98.9229507446289, 18.751102447509766]}, "properties": {"name": "Royal Flora Ratchaphruek Park", "all_strings": ["Royal Flora Ratchaphruek Park", "TH", "Thailand"], "key": "PP-7af4cc0000000000"}}, {"type": "Feature", "geometry": {"type": "Point", "coordinates": [100.52423858642578, 13.721248626708984]}, "properties": {"name": "MmD.Cafe", "all_strings": ["MmD.Cafe", "ถนนปั้น", "139", "เขตบางรัก", "แขวงสีลม", "กรุงเทพมหานคร", "เขตบางรัก", "10500", "TH", "Thailand"], "key": "PP-431c030200000000"}}, {"type": "Feature", "geometry": {"type": "Point", "coordinates": [99.00745391845703, 18.824804306030273]}, "properties": {"name": "ข้าวราดแกงสุโขทัย", "all_strings": ["ข้าวราดแกงสุโขทัย", "ซอยหมู่บ้านโกลเด้นทาวน์เชียงใหม่-กาดรวมโชค", "อ.เมืองเชียงใหม่", "ต.ฟ้าฮ่าม", "จ.เชียงใหม่", "อ.เมืองเชียงใหม่", "50000", "TH", "Thailand"], "key": "PP-e902690500000000"}}, {"type": "Feature", "geometry": {"type": "Point", "coordinates": [98.88720703125, 18.67729377746582]}, "properties": {"name": "Little Village", "all_strings": ["Little Village", "TH", "Thailand"], "key": "PP-7de10f0000000000"}}, {"type": "Feature", "geometry": {"type": "Point", "coordinates": [98.95845794677734, 18.8055477142334]}, "properties": {"name": "Punna Residence 5", "all_strings": ["Punna Residence 5", "Moo 2", "229/137", "Mueang Chiang Mai District", "Suthep", "Chiang Mai", "Mueang Chiang Mai District", "50200", "TH", "Thailand"], "key": "PP-8c55390300000000"}}, {"type": "Feature", "geometry": {"type": "Point", "coordinates": [98.63378488089575, 18.63067754589689]}, "properties": {"name": "Joy Elephant sanctuary ", "all_strings": ["Joy Elephant sanctuary "], "key": "CP-b8be052e944e0100-1770618502598"}}, {"type": "Feature", "geometry": {"type": "Point", "coordinates": [98.45281219482422, 19.318437576293945]}, "properties": {"name": "Dreamscape", "all_strings": ["Dreamscape", "Pai District", "Mae Hi", "Mae Hong Son", "Pai District", "58130", "TH", "Thailand"], "key": "PP-b898060400000000"}}, {"type": "Feature", "geometry": {"type": "Point", "coordinates": [98.9906005859375, 18.790864944458008]}, "properties": {"name": "zoe in yellow pub", "all_strings": ["zoe in yellow pub", "ถนนราชวิถี", "จังหวัดเชียงใหม่", "เทศบาลนครเชียงใหม่", "55520", "TH", "Thailand"], "key": "PP-468cbc0000000000"}}, {"type": "Feature", "geometry": {"type": "Point", "coordinates": [100.52862548828125, 13.73583984375]}, "properties": {"name": "Faculty of Communication Arts Chulalongkorn University", "all_strings": ["Faculty of Communication Arts Chulalongkorn University", "Phaya Thai Road", "254", "Pathum Wan District", "Pathum Wan", "Bangkok", "Pathum Wan District", "10330", "TH", "Thailand", "Faculty of Communication Arts Chulalongkorn University", "Faculty of Communication Arts Chulalongkorn University", "FCCU", "faculty-of-communication-arts-chulalongkorn-university-BpjPm"], "key": "PP-8c4d0d0300000000"}}, {"type": "Feature", "geometry": {"type": "Point", "coordinates": [98.95852660672249, 18.805538070197237]}, "properties": {"name": "place", "all_strings": [], "key": "UH-b8be052e944e0100-815678028"}}]}